start=new Date('2023-04-02T00:00:00.000Z').valueOf();
sats=[{"ELEMENT_SET_NO":"999","DECAY_DATE":null,"TLE_LINE1":"1 48331U 21036BH  23091.84819761  .00026234  00000-0  17688-2 0  9999","RCS_SIZE":"LARGE","ARG_OF_PERICENTER":"70.9424","OBJECT_NAME":"STARLINK-2514","LAUNCH_DATE":"2021-04-29","TIME_SYSTEM":"UTC","MEAN_MOTION_DOT":"0.00026234","RA_OF_ASC_NODE":"237.7918","MEAN_MOTION_DDOT":"0.0000000000000","EPHEMERIS_TYPE":"0","TLE_LINE2":"2 48331  53.0518 237.7918 0001065  70.9424 289.1680 15.06499416106330","COUNTRY_CODE":"US","CLASSIFICATION_TYPE":"U","PERIOD":"95.586","MEAN_MOTION":"15.06499416","MEAN_ELEMENT_THEORY":"SGP4","MEAN_ANOMALY":"289.1680","GP_ID":"229276760","PERIAPSIS":"546.171","REF_FRAME":"TEME","BSTAR":"0.00176880000000","SEMIMAJOR_AXIS":"6925.044","OBJECT_TYPE":"PAYLOAD","OBJECT_ID":"2021-036BH","SITE":"AFETR","INCLINATION":"53.0518","CENTER_NAME":"EARTH","APOAPSIS":"547.646","EPOCH":"2023-04-01T20:21:24.273504","REV_AT_EPOCH":"10633","NORAD_CAT_ID":"48331","FILE":"3877516","ECCENTRICITY":"0.00010650"},{"MEAN_MOTION_DOT":"0.00034308","RA_OF_ASC_NODE":"238.3892","TIME_SYSTEM":"UTC","MEAN_MOTION_DDOT":"0.0000000000000","OBJECT_NAME":"STARLINK-2511","ARG_OF_PERICENTER":"107.7961","TLE_LINE1":"1 48332U 21036BJ  23091.71462490  .00034308  00000-0  23080-2 0  9993","RCS_SIZE":"LARGE","ELEMENT_SET_NO":"999","DECAY_DATE":null,"LAUNCH_DATE":"2021-04-29","EPOCH":"2023-04-01T17:09:03.591360","APOAPSIS":"547.692","INCLINATION":"53.0534","CENTER_NAME":"EARTH","SITE":"AFETR","ECCENTRICITY":"0.00008990","FILE":"3877516","NORAD_CAT_ID":"48332","REV_AT_EPOCH":"10631","MEAN_ANOMALY":"252.3126","MEAN_ELEMENT_THEORY":"SGP4","MEAN_MOTION":"15.06447163","PERIOD":"95.589","CLASSIFICATION_TYPE":"U","TLE_LINE2":"2 48332  53.0534 238.3892 0000899 107.7961 252.3126 15.06447163106313","COUNTRY_CODE":"US","EPHEMERIS_TYPE":"0","OBJECT_TYPE":"PAYLOAD","OBJECT_ID":"2021-036BJ","SEMIMAJOR_AXIS":"6925.204","REF_FRAME":"TEME","BSTAR":"0.00230800000000","PERIAPSIS":"546.446","GP_ID":"229277010"},{"MEAN_ELEMENT_THEORY":"SGP4","MEAN_MOTION":"15.06462153","PERIOD":"95.588","COUNTRY_CODE":"US","TLE_LINE2":"2 48333  53.0511 238.1223 0001283  53.7021 306.4087 15.06462153106324","CLASSIFICATION_TYPE":"U","EPHEMERIS_TYPE":"0","MEAN_ANOMALY":"306.4087","BSTAR":"0.00249500000000","REF_FRAME":"TEME","GP_ID":"229276260","PERIAPSIS":"546.135","OBJECT_TYPE":"PAYLOAD","OBJECT_ID":"2021-036BK","SEMIMAJOR_AXIS":"6925.158","SITE":"AFETR","EPOCH":"2023-04-01T18:35:19.563072","APOAPSIS":"547.912","CENTER_NAME":"EARTH","INCLINATION":"53.0511","NORAD_CAT_ID":"48333","REV_AT_EPOCH":"10632","ECCENTRICITY":"0.00012830","FILE":"3877516","TLE_LINE1":"1 48333U 21036BK  23091.77453198  .00037141  00000-0  24950-2 0  9990","RCS_SIZE":"LARGE","ELEMENT_SET_NO":"999","DECAY_DATE":null,"OBJECT_NAME":"STARLINK-2518","ARG_OF_PERICENTER":"53.7021","LAUNCH_DATE":"2021-04-29","MEAN_MOTION_DOT":"0.00037141","RA_OF_ASC_NODE":"238.1223","TIME_SYSTEM":"UTC","MEAN_MOTION_DDOT":"0.0000000000000"},{"BSTAR":"0.00138910000000","REF_FRAME":"TEME","GP_ID":"229276010","PERIAPSIS":"546.563","OBJECT_TYPE":"PAYLOAD","OBJECT_ID":"2021-036BL","SEMIMAJOR_AXIS":"6925.339","MEAN_MOTION":"15.06403196","MEAN_ELEMENT_THEORY":"SGP4","EPHEMERIS_TYPE":"0","TLE_LINE2":"2 48334  53.0539 238.4347 0000925  86.1959 273.9135 15.06403196106310","COUNTRY_CODE":"US","CLASSIFICATION_TYPE":"U","PERIOD":"95.592","MEAN_ANOMALY":"273.9135","REV_AT_EPOCH":"10631","NORAD_CAT_ID":"48334","ECCENTRICITY":"0.00009250","FILE":"3877516","SITE":"AFETR","EPOCH":"2023-04-01T16:54:31.179456","INCLINATION":"53.0539","CENTER_NAME":"EARTH","APOAPSIS":"547.844","LAUNCH_DATE":"2021-04-29","TLE_LINE1":"1 48334U 21036BL  23091.70452754  .00020471  00000-0  13891-2 0  9991","RCS_SIZE":"LARGE","ELEMENT_SET_NO":"999","DECAY_DATE":null,"ARG_OF_PERICENTER":"86.1959","OBJECT_NAME":"STARLINK-2470","MEAN_MOTION_DDOT":"0.0000000000000","MEAN_MOTION_DOT":"0.00020471","RA_OF_ASC_NODE":"238.4347","TIME_SYSTEM":"UTC"},{"MEAN_ELEMENT_THEORY":"SGP4","MEAN_MOTION":"15.06450626","PERIOD":"95.589","COUNTRY_CODE":"US","TLE_LINE2":"2 48335  53.0546 238.4485 0001475  63.8027 296.3113 15.06450626106316","CLASSIFICATION_TYPE":"U","EPHEMERIS_TYPE":"0","MEAN_ANOMALY":"296.3113","BSTAR":"0.00191420000000","REF_FRAME":"TEME","PERIAPSIS":"546.037","GP_ID":"229277261","OBJECT_TYPE":"PAYLOAD","OBJECT_ID":"2021-036BM","SEMIMAJOR_AXIS":"6925.193","SITE":"AFETR","EPOCH":"2023-04-01T16:49:10.598304","APOAPSIS":"548.080","INCLINATION":"53.0546","CENTER_NAME":"EARTH","NORAD_CAT_ID":"48335","REV_AT_EPOCH":"10631","ECCENTRICITY":"0.00014750","FILE":"3877516","RCS_SIZE":"LARGE","TLE_LINE1":"1 48335U 21036BM  23091.70081711  .00028385  00000-0  19142-2 0  9990","DECAY_DATE":null,"ELEMENT_SET_NO":"999","OBJECT_NAME":"STARLINK-2441","ARG_OF_PERICENTER":"63.8027","LAUNCH_DATE":"2021-04-29","RA_OF_ASC_NODE":"238.4485","MEAN_MOTION_DOT":"0.00028385","TIME_SYSTEM":"UTC","MEAN_MOTION_DDOT":"0.0000000000000"},{"TIME_SYSTEM":"UTC","RA_OF_ASC_NODE":"139.6201","MEAN_MOTION_DOT":"0.00021950","MEAN_MOTION_DDOT":"0.0000000000000","OBJECT_NAME":"STARLINK-2613","ARG_OF_PERICENTER":"77.8068","ELEMENT_SET_NO":"999","DECAY_DATE":null,"TLE_LINE1":"1 48353U 21038A   23091.44098080  .00021950  00000-0  14861-2 0  9994","RCS_SIZE":"LARGE","LAUNCH_DATE":"2021-05-04","APOAPSIS":"548.138","INCLINATION":"53.0527","CENTER_NAME":"EARTH","EPOCH":"2023-04-01T10:35:00.741120","SITE":"AFETR","FILE":"3877270","ECCENTRICITY":"0.00015310","NORAD_CAT_ID":"48353","REV_AT_EPOCH":"10526","MEAN_ANOMALY":"282.3092","PERIOD":"95.589","COUNTRY_CODE":"US","TLE_LINE2":"2 48353  53.0527 139.6201 0001531  77.8068 282.3092 15.06444463105262","EPHEMERIS_TYPE":"0","CLASSIFICATION_TYPE":"U","MEAN_ELEMENT_THEORY":"SGP4","MEAN_MOTION":"15.06444463","SEMIMAJOR_AXIS":"6925.212","OBJECT_TYPE":"PAYLOAD","OBJECT_ID":"2021-038A","PERIAPSIS":"546.017","GP_ID":"229244733","REF_FRAME":"TEME","BSTAR":"0.00148610000000"},{"EPOCH":"2023-04-01T20:02:56.656608","APOAPSIS":"548.353","INCLINATION":"53.0538","CENTER_NAME":"EARTH","SITE":"AFETR","ECCENTRICITY":"0.00016540","FILE":"3877516","NORAD_CAT_ID":"48354","REV_AT_EPOCH":"10532","MEAN_ANOMALY":"272.8743","MEAN_ELEMENT_THEORY":"SGP4","MEAN_MOTION":"15.06401846","PERIOD":"95.592","CLASSIFICATION_TYPE":"U","TLE_LINE2":"2 48354  53.0538 137.8465 0001654  87.2435 272.8743 15.06401846105328","COUNTRY_CODE":"US","EPHEMERIS_TYPE":"0","OBJECT_TYPE":"PAYLOAD","OBJECT_ID":"2021-038B","SEMIMAJOR_AXIS":"6925.343","REF_FRAME":"TEME","BSTAR":"0.00120030000000","GP_ID":"229276262","PERIAPSIS":"546.062","RA_OF_ASC_NODE":"137.8465","MEAN_MOTION_DOT":"0.00017643","TIME_SYSTEM":"UTC","MEAN_MOTION_DDOT":"0.0000000000000","OBJECT_NAME":"STARLINK-2674","ARG_OF_PERICENTER":"87.2435","RCS_SIZE":"LARGE","TLE_LINE1":"1 48354U 21038B   23091.83537797  .00017643  00000-0  12003-2 0  9991","ELEMENT_SET_NO":"999","DECAY_DATE":null,"LAUNCH_DATE":"2021-05-04"},{"MEAN_ELEMENT_THEORY":"SGP4","MEAN_MOTION":"15.06411278","PERIOD":"95.591","TLE_LINE2":"2 48355  53.0532 137.8673 0001501  77.2858 282.8299 15.06411278105320","COUNTRY_CODE":"US","EPHEMERIS_TYPE":"0","CLASSIFICATION_TYPE":"U","MEAN_ANOMALY":"282.8299","REF_FRAME":"TEME","BSTAR":"0.00127280000000","GP_ID":"229276012","PERIAPSIS":"546.140","OBJECT_ID":"2021-038C","OBJECT_TYPE":"PAYLOAD","SEMIMAJOR_AXIS":"6925.314","SITE":"AFETR","EPOCH":"2023-04-01T19:57:38.323584","APOAPSIS":"548.218","INCLINATION":"53.0532","CENTER_NAME":"EARTH","NORAD_CAT_ID":"48355","REV_AT_EPOCH":"10532","ECCENTRICITY":"0.00015010","FILE":"3877516","RCS_SIZE":"LARGE","TLE_LINE1":"1 48355U 21038C   23091.83169356  .00018733  00000-0  12728-2 0  9999","ELEMENT_SET_NO":"999","DECAY_DATE":null,"OBJECT_NAME":"STARLINK-2635","ARG_OF_PERICENTER":"77.2858","LAUNCH_DATE":"2021-05-04","MEAN_MOTION_DOT":"0.00018733","RA_OF_ASC_NODE":"137.8673","TIME_SYSTEM":"UTC","MEAN_MOTION_DDOT":"0.0000000000000"},{"CLASSIFICATION_TYPE":"U","TLE_LINE2":"2 48356  53.0532 137.8837 0001555  67.8803 292.2351 15.06399434105320","COUNTRY_CODE":"US","EPHEMERIS_TYPE":"0","PERIOD":"95.592","MEAN_MOTION":"15.06399434","MEAN_ELEMENT_THEORY":"SGP4","MEAN_ANOMALY":"292.2351","GP_ID":"229277263","PERIAPSIS":"546.138","REF_FRAME":"TEME","BSTAR":"0.00069495000000","SEMIMAJOR_AXIS":"6925.350","OBJECT_ID":"2021-038D","OBJECT_TYPE":"PAYLOAD","SITE":"AFETR","INCLINATION":"53.0532","CENTER_NAME":"EARTH","APOAPSIS":"548.292","EPOCH":"2023-04-01T19:52:21.242496","REV_AT_EPOCH":"10532","NORAD_CAT_ID":"48356","FILE":"3877516","ECCENTRICITY":"0.00015550","ELEMENT_SET_NO":"999","DECAY_DATE":null,"TLE_LINE1":"1 48356U 21038D   23091.82802364  .00010085  00000-0  69495-3 0  9998","RCS_SIZE":"LARGE","ARG_OF_PERICENTER":"67.8803","OBJECT_NAME":"STARLINK-2637","LAUNCH_DATE":"2021-05-04","TIME_SYSTEM":"UTC","RA_OF_ASC_NODE":"137.8837","MEAN_MOTION_DOT":"0.00010085","MEAN_MOTION_DDOT":"0.0000000000000"},{"EPOCH":"2023-04-01T19:50:58.690752","APOAPSIS":"547.980","INCLINATION":"53.0524","CENTER_NAME":"EARTH","SITE":"AFETR","ECCENTRICITY":"0.00010140","FILE":"3877516","NORAD_CAT_ID":"48357","REV_AT_EPOCH":"10532","MEAN_ANOMALY":"225.8264","MEAN_ELEMENT_THEORY":"SGP4","MEAN_MOTION":"15.06379095","PERIOD":"95.593","TLE_LINE2":"2 48357  53.0524 137.9151 0001014 134.2808 225.8264 15.06379095105322","COUNTRY_CODE":"US","CLASSIFICATION_TYPE":"U","EPHEMERIS_TYPE":"0","OBJECT_TYPE":"PAYLOAD","OBJECT_ID":"2021-038E","SEMIMAJOR_AXIS":"6925.413","REF_FRAME":"TEME","BSTAR":"0.00036787000000","GP_ID":"229277513","PERIAPSIS":"546.575","RA_OF_ASC_NODE":"137.9151","MEAN_MOTION_DOT":"0.00005199","TIME_SYSTEM":"UTC","MEAN_MOTION_DDOT":"0.0000000000000","OBJECT_NAME":"STARLINK-2636","ARG_OF_PERICENTER":"134.2808","RCS_SIZE":"LARGE","TLE_LINE1":"1 48357U 21038E   23091.82706818  .00005199  00000-0  36787-3 0  9994","ELEMENT_SET_NO":"999","DECAY_DATE":null,"LAUNCH_DATE":"2021-05-04"}];
